ONEWEB-0456             
1 51646U 22012AA  25174.23399878 -.00000678  00000+0 -19792-2 0  9999
2 51646  87.8822 107.8040 0002125  83.7836 276.3533 13.10374536162331
ONEWEB-0457             
1 51647U 22012AB  25174.51619939  .00000004  00000+0 -24128-4 0  9997
2 51647  87.8827 107.8036 0001871  68.6233 291.5093 13.10369919162375
ONEWEB-0458             
1 51648U 22012AC  25174.53775767 -.00001421  00000+0 -41063-2 0  9992
2 51648  87.8805 107.7791 0001876  78.3332 281.8005 13.10377585163635
ONEWEB-0461             
1 51649U 22012AD  25174.43067899  .00000059  00000+0  11874-3 0  9994
2 51649  87.9064  77.2710 0001932  75.6774 284.4571 13.17647677166649
ONEWEB-0463             
1 51650U 22012AE  25174.48804713  .00000049  00000+0  93254-4 0  9997
2 51650  87.9069  77.3227 0001825  78.3846 281.7490 13.17651875166433
ONEWEB-0464             
1 51651U 22012AF  25174.53444110 -.00000592  00000+0 -17316-2 0  9993
2 51651  87.8832 107.8084 0002152  86.7099 273.4275 13.10372442162357
ONEWEB-0468             
1 51652U 22012AG  25174.54108954 -.00000638  00000+0 -18646-2 0  9996
2 51652  87.8834 107.7988 0001952  79.0843 281.0504 13.10374158162335
ONEWEB-0473             
1 51653U 22012AH  25174.52614870 -.00000471  00000+0 -13860-2 0  9992
2 51653  87.8829 107.8055 0001902  81.0959 279.0384 13.10370476162334
ONEWEB-0474             
1 51654U 22012AJ  25174.51785774 -.00000156  00000+0 -48330-3 0  9995
2 51654  87.8819 107.7700 0001965  86.1321 274.0031 13.10370106162321
ONEWEB-0475             
1 51655U 22012AK  25174.42393501  .00000085  00000+0  18508-3 0  9992
2 51655  87.9067  77.3153 0001587 103.2769 256.8539 13.17649286166442
ONEWEB-0490             
1 54113U 22138A   25173.30806560  .00000026  00000+0  32970-4 0  9998
2 54113  87.9210  16.4925 0001970  92.7022 267.4336 13.19724371129369
ONEWEB-0492             
1 54114U 22138B   25174.31896408  .00000235  00000+0  55544-3 0  9994
2 54114  87.9215  16.3148 0002010  86.7881 273.3482 13.19725782129504
ONEWEB-0495             
1 54115U 22138C   25174.52431376  .00000005  00000+0 -20399-4 0  9994
2 54115  87.9213  16.2849 0002213 105.0923 255.0454 13.19724653129510
ONEWEB-0497             
1 54116U 22138D   25174.30949545  .00000043  00000+0  75717-4 0  9998
2 54116  87.9211  16.2997 0001866  89.5835 270.5511 13.19724238129474
ONEWEB-0499             
1 54117U 22138E   25174.29210469  .00000039  00000+0  65970-4 0  9998
2 54117  87.9214  16.3209 0001605  97.4430 262.6885 13.19726916129487
ONEWEB-0500             
1 54118U 22138F   25174.29526437 -.00000103  00000+0 -28923-3 0  9994
2 54118  87.9211  16.3050 0001862  86.9849 273.1496 13.19725503129498
ONEWEB-0501             
1 54119U 22138G   25173.56712070  .00000100  00000+0  21672-3 0  9993
2 54119  87.9213  16.4437 0002009  99.7477 260.3883 13.19727759129374
ONEWEB-0502             
1 54120U 22138H   25174.31106729  .00000042  00000+0  72939-4 0  9995
2 54120  87.9208  16.2796 0001789  95.9938 264.1399 13.19727209129497
ONEWEB-0503             
1 54121U 22138J   25174.30000184 -.00000108  00000+0 -30135-3 0  9999
2 54121  87.9209  16.2864 0001498  88.4913 271.6392 13.19725087129489
ONEWEB-0504             
1 54122U 22138K   25174.28737181  .00000119  00000+0  26472-3 0  9990
2 54122  87.9211  16.3036 0001736  97.4989 262.6341 13.19727159129490
ONEWEB-0505             
1 54123U 22138L   25174.28422540  .00000125  00000+0  27944-3 0  9993
2 54123  87.9209  16.2939 0001972 105.6792 254.4558 13.19724776129474
ONEWEB-0506             
1 54124U 22138M   25174.25893908  .00000100  00000+0  21777-3 0  9992
2 54124  87.9209  16.2963 0001813  93.6532 266.4808 13.19727646129463
ONEWEB-0507             
1 54125U 22138N   25173.52131628  .00000013  00000+0 -10321-5 0  9995
2 54125  87.9218  16.4952 0001948  93.6227 266.5128 13.19724219129418
ONEWEB-0508             
1 54126U 22138P   25174.27631522  .00000171  00000+0  39377-3 0  9991
2 54126  87.9215  16.3280 0002082  97.7827 262.3542 13.19728049129497
ONEWEB-0509             
1 54127U 22138Q   25174.32685342  .00000305  00000+0  73070-3 0  9994
2 54127  87.9210  16.2803 0001788  91.8462 268.2876 13.19726809129470
ONEWEB-0510             
1 54128U 22138R   25174.42307071 -.00000070  00000+0 -20362-3 0  9993
2 54128  87.9263 345.8927 0001650  73.9799 286.1516 13.20770543131928
ONEWEB-0511             
1 54129U 22138S   25174.55117275  .00000091  00000+0  19391-3 0  9994
2 54129  87.9209  16.2414 0001510  91.3029 268.8276 13.19726545129539
ONEWEB-0512             
1 54130U 22138T   25174.54324732  .00000141  00000+0  31896-3 0  9993
2 54130  87.9217  16.2879 0001814 100.3138 259.8199 13.19728177129508
ONEWEB-0513             
1 54131U 22138U   25174.32079237  .00000280  00000+0  66198-3 0  9994
2 54131  87.9213  16.2985 0001780 102.6806 257.4526 13.20262804129366
ONEWEB-0514             
1 54132U 22138V   25174.25577640  .00000090  00000+0  19152-3 0  9995
2 54132  87.9210  16.3120 0001707  83.3784 276.7543 13.19732446129483
ONEWEB-0515             
1 54133U 22138W   25173.72863491 -.00000012  00000+0 -62144-4 0  9995
2 54133  87.9261 346.0068 0002480  73.7850 286.3556 13.20772424131857
ONEWEB-0516             
1 54134U 22138X   25174.30632612  .00000008  00000+0 -13109-4 0  9991
2 54134  87.9220  16.3380 0001926  90.0439 270.0914 13.19726954129496
ONEWEB-0517             
1 54135U 22138Y   25174.28578910  .00000055  00000+0  10479-3 0  9996
2 54135  87.9211  16.3011 0001472  87.9363 272.1938 13.19727277129493
ONEWEB-0518             
1 54136U 22138Z   25174.30474687  .00000042  00000+0  72039-4 0  9993
2 54136  87.9217  16.3336 0001862  93.4039 266.7307 13.19726565129493
ONEWEB-0519             
1 54137U 22138AA  25174.02674508  .00000032  00000+0  47409-4 0  9999
2 54137  87.9210  16.3455 0001560  89.6468 270.4843 13.19727578129466
ONEWEB-0520             
1 54138U 22138AB  25173.53079036  .00000006  00000+0 -18429-4 0  9992
2 54138  87.9210  16.4475 0001973  97.1543 262.9814 13.19725084129381
ONEWEB-0521             
1 54139U 22138AC  25174.54956896  .00000122  00000+0  27254-3 0  9996
2 54139  87.9208  16.2325 0001590  83.5593 276.5721 13.19724956129464
ONEWEB-0522             
1 54140U 22138AD  25174.30159150  .00000089  00000+0  19013-3 0  9996
2 54140  87.9208  16.2828 0001894  89.3597 270.7753 13.19724422129479
ONEWEB-0523             
1 54141U 22138AE  25174.39782800  .00000026  00000+0  30936-4 0  9999
2 54141  87.9263 345.9043 0001824  64.9742 295.1580 13.20772585131945
ONEWEB-0524             
1 54142U 22138AF  25174.46254250 -.00000023  00000+0 -88135-4 0  9994
2 54142  87.9263 345.8932 0002626  79.0879 281.0550 13.20772248131959
ONEWEB-0525             
1 54143U 22138AG  25174.54800212  .00000116  00000+0  25810-3 0  9990
2 54143  87.9210  16.2528 0001959  97.6049 262.5306 13.19725199129529
ONEWEB-0526             
1 54144U 22138AH  25174.27789482  .00000123  00000+0  27427-3 0  9990
2 54144  87.9208  16.2950 0001877  89.5571 270.5776 13.19727127129461
ONEWEB-0529             
1 54145U 22138AJ  25174.28105348  .00000128  00000+0  28615-3 0  9990
2 54145  87.9216  16.3368 0001948  94.2677 265.8678 13.19727191129485
ONEWEB-0531             
1 54146U 22138AK  25174.44833016 -.00000060  00000+0 -17985-3 0  9994
2 54146  87.9265 345.8904 0002123  67.9335 292.2024 13.20772205131952
ONEWEB-0535             
1 54147U 22138AL  25174.31423766  .00000000  00000+0 -31667-4 0  9995
2 54147  87.9210  16.2839 0001764  78.4552 281.6779 13.19727009129504
ONEWEB-0536             
1 54148U 22138AM  25174.43571114  .00000112  00000+0  24258-3 0  9990
2 54148  87.9263 345.9378 0002383  67.0020 293.1365 13.20772698131941
ONEWEB-0527             
1 54642U 22166A   25174.37042512 -.00000069  00000+0 -19934-3 0  9996
2 54642  87.9264 315.5678 0001948  96.1459 263.9897 13.21824236124137
ONEWEB-0528             
1 54643U 22166B   25174.37673861 -.00000090  00000+0 -24880-3 0  9994
2 54643  87.9269 315.5659 0001984  99.3433 260.7926 13.21823970124142
ONEWEB-0539             
1 54644U 22166C   25174.64008298  .00000090  00000+0  18737-3 0  9993
2 54644  87.9248 315.4919 0001734 103.4834 256.6494 13.21827866124178
ONEWEB-0540             
1 54645U 22166D   25173.81386534 -.00000239  00000+0 -61042-3 0  9998
2 54645  87.9261 315.6867 0001692 102.3712 257.7612 13.21825441124052
ONEWEB-0542             
1 54646U 22166E   25173.36271012  .00000026  00000+0  30298-4 0  9995
2 54646  87.9247 315.7443 0001491  99.6314 260.4988 13.21826945124003
ONEWEB-0545             
1 54647U 22166F   25174.61644030 -.00000003  00000+0 -39047-4 0  9997
2 54647  87.9258 315.5076 0001496 111.4741 248.6553 13.21824354124130
ONEWEB-0580             
1 54648U 22166G   25174.36253888 -.00000056  00000+0 -16715-3 0  9991
2 54648  87.9268 315.5542 0001533  99.8293 260.3014 13.21827213124144
ONEWEB-0582             
1 54649U 22166H   25174.63220907  .00000020  00000+0  16597-4 0  9996
2 54649  87.9245 315.5038 0001326 101.4267 258.7016 13.21827462124151
ONEWEB-0583             
1 54650U 22166J   25173.35641137  .00000062  00000+0  11741-3 0  9999
2 54650  87.9263 315.7743 0001748 101.3505 258.7825 13.21827130123991
ONEWEB-0584             
1 54651U 22166K   25174.36094994 -.00000046  00000+0 -14190-3 0  9990
2 54651  87.9270 315.5588 0001436  94.8069 265.3229 13.21827281124114
ONEWEB-0585             
1 54652U 22166L   25174.15910304  .00000010  00000+0 -69386-5 0  9999
2 54652  87.9258 315.5866 0001949  95.5146 264.6210 13.21827317124092
ONEWEB-0586             
1 54653U 22166M   25174.62589887  .00000141  00000+0  31026-3 0  9992
2 54653  87.9264 315.5151 0001704 101.5917 258.5408 13.21827798124151
ONEWEB-0587             
1 54654U 22166N   25174.63537295  .00000133  00000+0  28950-3 0  9993
2 54654  87.9261 315.4619 0002092  96.3706 263.7666 13.21824873124318
